[{"OBJECT_NAME":"TRACERS 2","OBJECT_ID":"2025-154E","EPOCH":"2026-03-09T22:30:20.763648","MEAN_MOTION":14.93139805,"ECCENTRICITY":0.00022565,"INCLINATION":97.68,"RA_OF_ASC_NODE":134.9823,"ARG_OF_PERICENTER":263.0994,"MEAN_ANOMALY":96.9969,"EPHEMERIS_TYPE":0,"CLASSIFICATION_TYPE":"U","NORAD_CAT_ID":64873,"ELEMENT_SET_NO":999,"REV_AT_EPOCH":3418,"BSTAR":0.0002463614,"MEAN_MOTION_DOT":2.514e-5,"MEAN_MOTION_DDOT":0},{"OBJECT_NAME":"DELTA 2 R\/B","OBJECT_ID":"1990-074B","EPOCH":"2026-03-09T13:41:18.722976","MEAN_MOTION":14.63139944,"ECCENTRICITY":0.0331131,"INCLINATION":24.7574,"RA_OF_ASC_NODE":207.7051,"ARG_OF_PERICENTER":168.7615,"MEAN_ANOMALY":192.0502,"EPHEMERIS_TYPE":0,"CLASSIFICATION_TYPE":"U","NORAD_CAT_ID":20763,"ELEMENT_SET_NO":999,"REV_AT_EPOCH":86338,"BSTAR":0.00071917,"MEAN_MOTION_DOT":8.858e-5,"MEAN_MOTION_DDOT":0}]
